ONEWEB-0195             
1 48240U 21031AG  23342.42350456  .00000070  00000+0  15546-3 0  9998
2 48240  87.8970 113.1701 0001910 111.2724 248.8610 13.14505827127052
ONEWEB-0201             
1 48241U 21031AH  23342.41306188 -.00000061  00000+0 -19660-3 0  9994
2 48241  87.8955 113.2012 0001634 102.1191 258.0122 13.15002289127283
ONEWEB-0207             
1 48242U 21031AJ  23342.39187815 -.00000149  00000+0 -43717-3 0  9993
2 48242  87.8947 113.1734 0001705  95.6457 264.4867 13.14500255127197
ONEWEB-0208             
1 48243U 21031AK  23342.37357922  .00000122  00000+0  29540-3 0  9997
2 48243  87.8971 113.1969 0001673 105.6649 254.4666 13.14506247127209
ONEWEB-0200             
1 48244U 21031AL  23342.41323669 -.00000066  00000+0 -21374-3 0  9990
2 48244  87.8965 113.1836 0001696 108.0045 252.1269 13.14503135127137
ONEWEB-0217             
1 48245U 21031AM  23342.42908618  .00000179  00000+0  44832-3 0  9992
2 48245  87.8974 113.1665 0001713 111.8544 248.2768 13.14503583127085
ONEWEB-0211             
1 48767U 21045A   23342.35624852  .00000150  00000+0  36487-3 0  9999
2 48767  87.8996  82.6908 0003527 122.4533 237.6938 13.15550583123214
ONEWEB-0223             
1 48768U 21045B   23342.30237189 -.00000080  00000+0 -24772-3 0  9996
2 48768  87.9002  82.7066 0002118 128.1576 231.9746 13.15547114123192
